[{"OBJECT_NAME":"STARLINK-11187 [DTC]","OBJECT_ID":"2024-124B","EPOCH":"2026-03-09T13:08:31.639488","MEAN_MOTION":15.69691615,"ECCENTRICITY":0.00010286,"INCLINATION":53.1596,"RA_OF_ASC_NODE":161.8176,"ARG_OF_PERICENTER":82.7315,"MEAN_ANOMALY":277.382,"EPHEMERIS_TYPE":0,"CLASSIFICATION_TYPE":"U","NORAD_CAT_ID":60184,"ELEMENT_SET_NO":999,"REV_AT_EPOCH":9651,"BSTAR":-8.443115e-6,"MEAN_MOTION_DOT":-1.61e-5,"MEAN_MOTION_DDOT":0},{"OBJECT_NAME":"FLOCK 4Q-17","OBJECT_ID":"2023-174AD","EPOCH":"2026-03-09T17:33:32.514048","MEAN_MOTION":15.67180586,"ECCENTRICITY":0.0003312,"INCLINATION":97.3815,"RA_OF_ASC_NODE":160.3254,"ARG_OF_PERICENTER":203.6939,"MEAN_ANOMALY":156.417,"EPHEMERIS_TYPE":0,"CLASSIFICATION_TYPE":"U","NORAD_CAT_ID":58283,"ELEMENT_SET_NO":999,"REV_AT_EPOCH":13057,"BSTAR":0.0017680138,"MEAN_MOTION_DOT":0.0019313,"MEAN_MOTION_DDOT":0}]
